NORAD_CAT_ID,OBJECT_NAME,OBJECT_TYPE,EPOCH,MEAN_MOTION,ECCENTRICITY,INCLINATION,RA_OF_ASC_NODE,ARG_OF_PERICENTER,MEAN_ANOMALY,BSTAR,MEAN_MOTION_DOT,MEAN_MOTION_DDOT,TLE_LINE0,TLE_LINE1,TLE_LINE2,SEMIMAJOR_AXIS,PERIOD,APOGEE,PERIGEE,DECAYED
53005.0,STARLINK-4288,PAYLOAD,2023-02-26 22:05:59,15.08852229,0.0001257,53.2173,22.6035,88.4069,271.7067,0.00049606,7.618e-05,0.0,0 STARLINK-4288,1 53005U 22076V   23057.92082849  .00007618  00000-0  49606-3 0  9999,2 53005  53.2173  22.6035 0001257  88.4069 271.7067 15.08852229 35767,6917.843,95.437,540.578,538.838,0.0
53005.0,STARLINK-4288,PAYLOAD,2023-02-27 04:27:31,15.08855196,0.0001311,53.219,21.4167,91.4059,268.7083,0.00050729,7.798e-05,0.0,0 STARLINK-4288,1 53005U 22076V   23058.18578669  .00007798  00000-0  50729-3 0  9995,2 53005  53.2190  21.4167 0001311  91.4059 268.7083 15.08855196 36270,6917.834,95.437,540.606,538.792,0.0
53005.0,STARLINK-4288,PAYLOAD,2023-02-27 21:56:46,15.08842769,0.0001246,53.2166,18.1403,64.0154,296.0966,0.00061951,9.586e-05,0.0,0 STARLINK-4288,1 53005U 22076V   23058.91442835  .00009586  00000-0  61951-3 0  9997,2 53005  53.2166  18.1403 0001246  64.0154 296.0966 15.08842769 35914,6917.872,95.437,540.599,538.875,0.0
53005.0,STARLINK-4288,PAYLOAD,2023-02-28 04:18:19,15.08843153,0.0001179,53.2166,16.951,65.6471,294.4645,0.0001671,2.373e-05,0.0,0 STARLINK-4288,1 53005U 22076V   23059.17938824  .00002373  00000-0  16710-3 0  9994,2 53005  53.2166  16.9510 0001179  65.6471 294.4645 15.08843153 36424,6917.871,95.437,540.551,538.92,0.0
53005.0,STARLINK-4288,PAYLOAD,2023-02-28 07:29:05,15.08846193,0.0001483,53.2175,16.3563,83.2758,276.8403,0.00016557,2.348e-05,0.0,0 STARLINK-4288,1 53005U 22076V   23059.31186670  .00002348  00000-0  16557-3 0  9995,2 53005  53.2175  16.3563 0001483  83.2758 276.8403 15.08846193 35970,6917.861,95.437,540.752,538.701,0.0
53005.0,STARLINK-4288,PAYLOAD,2023-03-01 04:09:07,15.08817846,0.0001501,53.2177,12.4949,100.9192,259.1969,-0.00016963,-2.985e-05,0.0,0 STARLINK-4288,1 53005U 22076V   23060.17300639 -.00002985  00000-0 -16963-3 0  9994,2 53005  53.2177  12.4949 0001501 100.9192 259.1969 15.08817846 36578,6917.948,95.439,540.851,538.775,0.0
53005.0,STARLINK-4288,PAYLOAD,2023-03-01 05:44:30,15.08818182,0.0001506,53.2175,12.1973,100.354,259.7622,-0.00012229,-2.232e-05,0.0,0 STARLINK-4288,1 53005U 22076V   23060.23924760 -.00002232  00000-0 -12229-3 0  9994,2 53005  53.2175  12.1973 0001506 100.3540 259.7622 15.08818182 36112,6917.947,95.439,540.854,538.77,0.0
53005.0,STARLINK-4288,PAYLOAD,2023-03-02 02:24:31,15.08853085,0.0001472,53.2186,8.3283,81.0647,279.0512,0.00067879,0.00010535,0.0,0 STARLINK-4288,1 53005U 22076V   23061.10035893  .00010535  00000-0  67879-3 0  9995,2 53005  53.2186   8.3283 0001472  81.0647 279.0512 15.08853085 36710,6917.84,95.437,540.724,538.687,0.0
53005.0,STARLINK-4288,PAYLOAD,2023-03-02 08:46:02,15.08899413,0.0001291,53.2163,7.1407,77.5254,282.5883,0.0017646,0.00027953,0.0,0 STARLINK-4288,1 53005U 22076V   23061.36530882  .00027953  00000-0  17646-2 0  9999,2 53005  53.2163   7.1407 0001291  77.5254 282.5883 15.08899413 36280,6917.699,95.434,540.457,538.671,0.0
53005.0,STARLINK-4288,PAYLOAD,2023-03-03 07:01:25,15.08898253,0.0001186,53.2162,2.9772,104.3916,255.7207,0.0035694,0.0005707,0.0,0 STARLINK-4288,1 53005U 22076V   23062.29266172  .00057070  00000-0  35694-2 0  9996,2 53005  53.2162   2.9772 0001186 104.3916 255.7207 15.08898253 36894,6917.702,95.434,540.388,538.747,0.0
53005.0,STARLINK-4288,PAYLOAD,2023-03-04 06:52:12,15.08904586,0.0001172,53.2166,358.5169,83.9824,276.1301,0.0035669,0.0005704,0.0,0 STARLINK-4288,1 53005U 22076V   23063.28625425  .00057040  00000-0  35669-2 0  9995,2 53005  53.2166 358.5169 0001172  83.9824 276.1301 15.08904586 37040,6917.683,95.433,540.359,538.737,0.0
53005.0,STARLINK-4288,PAYLOAD,2023-03-04 19:35:18,15.08831829,0.0001518,53.2172,356.1393,65.6985,294.4166,0.00070814,0.00010998,0.0,0 STARLINK-4288,1 53005U 22076V   23063.81618950  .00010998  00000-0  70814-3 0  9992,2 53005  53.2172 356.1393 0001518  65.6985 294.4166 15.08831829 37129,6917.905,95.438,540.821,538.72,0.0
53005.0,STARLINK-4288,PAYLOAD,2023-03-05 01:56:51,15.08828091,0.0001105,53.2171,354.9483,44.5652,315.5429,0.0018936,0.00029967,0.0,0 STARLINK-4288,1 53005U 22076V   23064.08115524  .00029967  00000-0  18936-2 0  9993,2 53005  53.2171 354.9483 0001105  44.5652 315.5429 15.08828091 36698,6917.917,95.438,540.546,539.017,0.0
53005.0,STARLINK-4288,PAYLOAD,2023-03-05 22:36:52,15.08872373,0.0001282,53.2173,351.0833,43.0418,317.0674,0.0027426,0.0004367,0.0,0 STARLINK-4288,1 53005U 22076V   23064.94227870  .00043670  00000-0  27426-2 0  9997,2 53005  53.2173 351.0833 0001282  43.0418 317.0674 15.08872373 37295,6917.781,95.436,540.533,538.76,0.0
53005.0,STARLINK-4288,PAYLOAD,2023-03-06 04:58:24,15.08882887,0.0001288,53.216,349.8924,58.134,301.9777,0.0021041,0.00033397,0.0,0 STARLINK-4288,1 53005U 22076V   23065.20723125  .00033397  00000-0  21041-2 0  9993,2 53005  53.2160 349.8924 0001288  58.1340 301.9777 15.08882887 37336,6917.749,95.435,540.505,538.723,0.0
53005.0,STARLINK-4288,PAYLOAD,2023-03-06 19:16:53,15.08832928,0.0001752,53.2173,347.2186,70.9522,289.166,0.00046977,7.195e-05,0.0,0 STARLINK-4288,1 53005U 22076V   23065.80340177  .00007195  00000-0  46977-3 0  9994,2 53005  53.2173 347.2186 0001752  70.9522 289.1660 15.08832928 37421,6917.902,95.438,540.979,538.555,0.0
53005.0,STARLINK-4288,PAYLOAD,2023-03-07 01:38:26,15.08856923,0.0001169,53.2164,346.0293,85.2983,274.8143,0.00096148,0.00015054,0.0,0 STARLINK-4288,1 53005U 22076V   23066.06835687  .00015054  00000-0  96148-3 0  9996,2 53005  53.2164 346.0293 0001169  85.2983 274.8143 15.08856923 37461,6917.829,95.436,540.502,538.885,0.0
53005.0,STARLINK-4288,PAYLOAD,2023-03-08 04:39:59,15.08866166,0.0001158,53.2164,340.9728,58.6035,301.5071,0.0011157,0.00017526,0.0,0 STARLINK-4288,1 53005U 22076V   23067.19443604  .00017526  00000-0  11157-2 0  9997,2 53005  53.2164 340.9728 0001158  58.6035 301.5071 15.08866166 37634,6917.8,95.436,540.466,538.864,0.0
53005.0,STARLINK-4288,PAYLOAD,2023-03-08 23:44:37,15.08835846,0.0001005,53.2155,337.407,103.9431,256.1673,5.738e-05,6.25e-06,0.0,0 STARLINK-4288,1 53005U 22076V   23067.98932147  .00000625  00000-0  57380-4 0  9991,2 53005  53.2155 337.4070 0001005 103.9431 256.1673 15.08835846 37757,6917.893,95.438,540.453,539.063,0.0
53005.0,STARLINK-4288,PAYLOAD,2023-03-09 01:20:00,15.08855507,0.0001013,53.2157,337.1096,116.1153,243.9944,0.00052809,8.13e-05,0.0,0 STARLINK-4288,1 53005U 22076V   23068.05555848  .00008130  00000-0  52809-3 0  9998,2 53005  53.2157 337.1096 0001013 116.1153 243.9944 15.08855507 37762,6917.833,95.437,540.399,538.997,0.0
53005.0,STARLINK-4288,PAYLOAD,2023-03-09 17:13:51,15.08836349,0.0001308,53.2162,334.1339,80.6177,279.4963,-6.2952e-05,-1.29e-05,0.0,0 STARLINK-4288,1 53005U 22076V   23068.71796152 -.00001290  00000-0 -62952-4 0  9999,2 53005  53.2162 334.1339 0001308  80.6177 279.4963 15.08836349 37862,6917.892,95.438,540.661,538.852,0.0
53005.0,STARLINK-4288,PAYLOAD,2023-03-09 22:00:01,15.08843274,0.0001457,53.2162,333.2427,102.5662,257.5493,0.00017892,2.561e-05,0.0,0 STARLINK-4288,1 53005U 22076V   23068.91667924  .00002561  00000-0  17892-3 0  9997,2 53005  53.2162 333.2427 0001457 102.5662 257.5493 15.08843274 37420,6917.87,95.437,540.743,538.727,0.0
53005.0,STARLINK-4288,PAYLOAD,2023-03-10 01:10:47,15.08853452,0.0001333,53.2163,332.6465,78.0095,282.1047,0.0010337,0.00016208,0.0,0 STARLINK-4288,1 53005U 22076V   23069.04916221  .00016208  00000-0  10337-2 0  9998,2 53005  53.2163 332.6465 0001333  78.0095 282.1047 15.08853452 37918,6917.839,95.437,540.626,538.782,0.0
53005.0,STARLINK-4288,PAYLOAD,2023-03-10 10:43:07,15.08832872,0.0001808,53.216,330.8632,60.8599,299.2574,0.00052769,8.119e-05,0.0,0 STARLINK-4288,1 53005U 22076V   23069.44661064  .00008119  00000-0  52769-3 0  9992,2 53005  53.2160 330.8632 0001808  60.8599 299.2574 15.08832872 37979,6917.902,95.438,541.018,538.516,0.0
53005.0,STARLINK-4288,PAYLOAD,2023-03-11 04:12:21,15.08849894,0.0001064,53.2167,327.5876,90.4539,269.6575,0.0003311,4.987e-05,0.0,0 STARLINK-4288,1 53005U 22076V   23070.17524462  .00004987  00000-0  33110-3 0  9992,2 53005  53.2167 327.5876 0001064  90.4539 269.6575 15.08849894 37611,6917.85,95.437,540.451,538.979,0.0
53005.0,STARLINK-4288,PAYLOAD,2023-03-11 21:41:35,15.08850494,0.0001422,53.2163,324.3212,61.2454,298.868,0.00027707,4.126e-05,0.0,0 STARLINK-4288,1 53005U 22076V   23070.90388694  .00004126  00000-0  27707-3 0  9998,2 53005  53.2163 324.3212 0001422  61.2454 298.8680 15.08850494 37727,6917.848,95.437,540.697,538.73,0.0
53005.0,STARLINK-4288,PAYLOAD,2023-03-12 04:03:07,15.08872872,0.0001166,53.2159,323.1301,69.096,291.0157,0.00066975,0.00010397,0.0,0 STARLINK-4288,1 53005U 22076V   23071.16883322  .00010397  00000-0  66975-3 0  9992,2 53005  53.2159 323.1301 0001166  69.0960 291.0157 15.08872872 38236,6917.78,95.435,540.452,538.838,0.0
53005.0,STARLINK-4288,PAYLOAD,2023-03-13 03:53:54,15.08867937,0.0001361,53.2157,318.6685,93.3744,266.7404,0.00040989,6.246e-05,0.0,0 STARLINK-4288,1 53005U 22076V   23072.16243441  .00006246  00000-0  40989-3 0  9990,2 53005  53.2157 318.6685 0001361  93.3744 266.7404 15.08867937 38381,6917.795,95.436,540.602,538.718,0.0
53005.0,STARLINK-4288,PAYLOAD,2023-03-13 21:23:10,15.08820183,0.0001387,53.2153,315.3974,100.6281,259.4867,-0.00043069,-7.132e-05,0.0,0 STARLINK-4288,1 53005U 22076V   23072.89109264 -.00007132  00000-0 -43069-3 0  9993,2 53005  53.2153 315.3974 0001387 100.6281 259.4867 15.08820183 38494,6917.941,95.439,540.765,538.846,0.0
53005.0,STARLINK-4288,PAYLOAD,2023-03-14 02:09:19,15.08826844,0.0001455,53.2158,314.5064,93.2515,266.8643,-0.00010511,-1.96e-05,0.0,0 STARLINK-4288,1 53005U 22076V   23073.08981395 -.00001960  00000-0 -10511-3 0  9997,2 53005  53.2158 314.5064 0001455  93.2515 266.8643 15.08826844 38521,6917.921,95.438,540.792,538.779,0.0
